FLOCK 4G-24             
1 62637U 25009AE  26068.72509072  .00010513  00000+0  38996-3 0  9991
2 62637  97.4061 151.5140 0001802 280.2808  79.8228 15.27784978 63732
STARLINK-35292          
1 66322U 25253D   26068.40741777  .00042324  00000+0  15378-2 0  9995
2 66322  43.0000 213.9049 0001924 267.9538  92.1093 15.27599112 20202
